STARLINK-4264           
1 52993U 22076H   25344.14752685  .00003437  00000+0  23384-3 0  9990
2 52993  53.2178 136.0906 0001773  82.4066 277.7128 15.08854316189323
STARLINK-4256           
1 52994U 22076J   25344.14386013  .00005407  00000+0  35749-3 0  9996
2 52994  53.2166 136.1070 0001354 101.3045 258.8100 15.08846249189323
STARLINK-4296           
1 52995U 22076K   25342.74544623  .00001371  00000+0  10418-3 0  9996
2 52995  53.2168 142.3858 0001256  83.7996 276.3139 15.08841290189113
STARLINK-4295           
1 52996U 22076L   25344.16691798  .00001617  00000+0  11966-3 0  9993
2 52996  53.2153 136.2834 0001407  83.4492 276.6660 15.08839388189320
STARLINK-4254           
1 52998U 22076N   25343.72800028  .00001770  00000+0  12926-3 0  9991
2 52998  53.2174 137.8855 0001308  90.4917 269.6225 15.08840506189261
STARLINK-4217           
1 52999U 22076P   25343.85312844  .00000210  00000+0  31308-4 0  9994
2 52999  53.2166 137.4129 0001402  91.5412 268.5741 15.08839623189281
STARLINK-4194           
1 53000U 22076Q   25344.13280871  .00001247  00000+0  96393-4 0  9990
2 53000  53.2176 136.1569 0001192  91.4645 268.6484 15.08841188189322
STARLINK-4190           
1 53001U 22076R   25343.45201114  .00000950  00000+0  77787-4 0  9994
2 53001  53.2168 139.2096 0001494  90.8137 269.3027 15.08841576189228
STARLINK-4121           
1 53002U 22076S   25343.73169308  .00001219  00000+0  94690-4 0  9995
2 53002  53.2182 137.9561 0001320  82.5520 277.5623 15.08837333189262
STARLINK-4255           
1 53003U 22076T   25343.84208442  .00001096  00000+0  86921-4 0  9992
2 53003  53.2169 137.4595 0001416  82.7901 277.3253 15.08844108189288
STARLINK-4253           
1 53004U 22076U   25343.72432610  .00000415  00000+0  44152-4 0  9990
2 53004  53.2168 137.9892 0001655  91.2569 268.8613 15.08843634189269
STARLINK-4288           
1 53005U 22076V   25343.70593376  .00005478  00000+0  36192-3 0  9994
2 53005  53.2159 138.0734 0001477  90.3570 269.7591 15.08851027189261
STARLINK-4290           
1 53006U 22076W   25343.84576851  .00002183  00000+0  15518-3 0  9998
2 53006  53.2178 137.4440 0001247  87.1436 272.9699 15.08839579189285
STARLINK-4215           
1 53007U 22076X   25344.16224971  .00001211  00000+0  94127-4 0  9993
2 53007  53.2161 136.0244 0001353  84.4636 275.6511 15.08853970189335
STARLINK-4275           
1 53008U 22076Y   25343.83472364  .00001605  00000+0  11886-3 0  9995
2 53008  53.2159 137.4848 0001337  84.2714 275.8431 15.08844399189287
STARLINK-4277           
1 53009U 22076Z   25343.68476552  .00000502  00000+0  49610-4 0  9994
2 53009  53.2163 128.1681 0001287  89.8254 270.2886 15.08847580189399
