[{"OBJECT_NAME":"STARLINK-4264","OBJECT_ID":"2022-076H","EPOCH":"2025-12-10T03:32:26.319840","MEAN_MOTION":15.08854316,"ECCENTRICITY":0.00017739,"INCLINATION":53.2178,"RA_OF_ASC_NODE":136.0906,"ARG_OF_PERICENTER":82.4066,"MEAN_ANOMALY":277.7128,"EPHEMERIS_TYPE":0,"CLASSIFICATION_TYPE":"U","NORAD_CAT_ID":52993,"ELEMENT_SET_NO":999,"REV_AT_EPOCH":18932,"BSTAR":0.00023383727,"MEAN_MOTION_DOT":3.437e-5,"MEAN_MOTION_DDOT":0},{"OBJECT_NAME":"STARLINK-4256","OBJECT_ID":"2022-076J","EPOCH":"2025-12-10T03:27:09.515232","MEAN_MOTION":15.08846249,"ECCENTRICITY":0.00013548,"INCLINATION":53.2166,"RA_OF_ASC_NODE":136.107,"ARG_OF_PERICENTER":101.3045,"MEAN_ANOMALY":258.81,"EPHEMERIS_TYPE":0,"CLASSIFICATION_TYPE":"U","NORAD_CAT_ID":52994,"ELEMENT_SET_NO":999,"REV_AT_EPOCH":18932,"BSTAR":0.00035749039,"MEAN_MOTION_DOT":5.407e-5,"MEAN_MOTION_DDOT":0},{"OBJECT_NAME":"STARLINK-4296","OBJECT_ID":"2022-076K","EPOCH":"2025-12-08T17:53:26.554272","MEAN_MOTION":15.0884129,"ECCENTRICITY":0.00012569,"INCLINATION":53.2168,"RA_OF_ASC_NODE":142.3858,"ARG_OF_PERICENTER":83.7996,"MEAN_ANOMALY":276.3139,"EPHEMERIS_TYPE":0,"CLASSIFICATION_TYPE":"U","NORAD_CAT_ID":52995,"ELEMENT_SET_NO":999,"REV_AT_EPOCH":18911,"BSTAR":0.00010418253,"MEAN_MOTION_DOT":1.371e-5,"MEAN_MOTION_DDOT":0},{"OBJECT_NAME":"STARLINK-4295","OBJECT_ID":"2022-076L","EPOCH":"2025-12-10T04:00:21.713472","MEAN_MOTION":15.08839388,"ECCENTRICITY":0.00014072,"INCLINATION":53.2153,"RA_OF_ASC_NODE":136.2834,"ARG_OF_PERICENTER":83.4492,"MEAN_ANOMALY":276.666,"EPHEMERIS_TYPE":0,"CLASSIFICATION_TYPE":"U","NORAD_CAT_ID":52996,"ELEMENT_SET_NO":999,"REV_AT_EPOCH":18932,"BSTAR":0.00011965515,"MEAN_MOTION_DOT":1.617e-5,"MEAN_MOTION_DDOT":0},{"OBJECT_NAME":"STARLINK-4254","OBJECT_ID":"2022-076N","EPOCH":"2025-12-09T17:28:19.224192","MEAN_MOTION":15.08840506,"ECCENTRICITY":0.00013081,"INCLINATION":53.2174,"RA_OF_ASC_NODE":137.8855,"ARG_OF_PERICENTER":90.4917,"MEAN_ANOMALY":269.6225,"EPHEMERIS_TYPE":0,"CLASSIFICATION_TYPE":"U","NORAD_CAT_ID":52998,"ELEMENT_SET_NO":999,"REV_AT_EPOCH":18926,"BSTAR":0.00012925963,"MEAN_MOTION_DOT":1.77e-5,"MEAN_MOTION_DDOT":0},{"OBJECT_NAME":"STARLINK-4217","OBJECT_ID":"2022-076P","EPOCH":"2025-12-09T20:28:30.297216","MEAN_MOTION":15.08839623,"ECCENTRICITY":0.00014022,"INCLINATION":53.2166,"RA_OF_ASC_NODE":137.4129,"ARG_OF_PERICENTER":91.5412,"MEAN_ANOMALY":268.5741,"EPHEMERIS_TYPE":0,"CLASSIFICATION_TYPE":"U","NORAD_CAT_ID":52999,"ELEMENT_SET_NO":999,"REV_AT_EPOCH":18928,"BSTAR":3.1307554e-5,"MEAN_MOTION_DOT":2.1e-6,"MEAN_MOTION_DDOT":0},{"OBJECT_NAME":"STARLINK-4194","OBJECT_ID":"2022-076Q","EPOCH":"2025-12-10T03:11:14.672544","MEAN_MOTION":15.08841188,"ECCENTRICITY":0.0001192,"INCLINATION":53.2176,"RA_OF_ASC_NODE":136.1569,"ARG_OF_PERICENTER":91.4645,"MEAN_ANOMALY":268.6484,"EPHEMERIS_TYPE":0,"CLASSIFICATION_TYPE":"U","NORAD_CAT_ID":53000,"ELEMENT_SET_NO":999,"REV_AT_EPOCH":18932,"BSTAR":9.6393018e-5,"MEAN_MOTION_DOT":1.247e-5,"MEAN_MOTION_DDOT":0},{"OBJECT_NAME":"STARLINK-4190","OBJECT_ID":"2022-076R","EPOCH":"2025-12-09T10:50:53.762496","MEAN_MOTION":15.08841576,"ECCENTRICITY":0.00014949,"INCLINATION":53.2168,"RA_OF_ASC_NODE":139.2096,"ARG_OF_PERICENTER":90.8137,"MEAN_ANOMALY":269.3027,"EPHEMERIS_TYPE":0,"CLASSIFICATION_TYPE":"U","NORAD_CAT_ID":53001,"ELEMENT_SET_NO":999,"REV_AT_EPOCH":18922,"BSTAR":7.7786983e-5,"MEAN_MOTION_DOT":9.5e-6,"MEAN_MOTION_DDOT":0},{"OBJECT_NAME":"STARLINK-4121","OBJECT_ID":"2022-076S","EPOCH":"2025-12-09T17:33:38.282112","MEAN_MOTION":15.08837333,"ECCENTRICITY":0.00013206,"INCLINATION":53.2182,"RA_OF_ASC_NODE":137.9561,"ARG_OF_PERICENTER":82.552,"MEAN_ANOMALY":277.5623,"EPHEMERIS_TYPE":0,"CLASSIFICATION_TYPE":"U","NORAD_CAT_ID":53002,"ELEMENT_SET_NO":999,"REV_AT_EPOCH":18926,"BSTAR":9.4689677e-5,"MEAN_MOTION_DOT":1.219e-5,"MEAN_MOTION_DDOT":0},{"OBJECT_NAME":"STARLINK-4255","OBJECT_ID":"2022-076T","EPOCH":"2025-12-09T20:12:36.093888","MEAN_MOTION":15.08844108,"ECCENTRICITY":0.00014168,"INCLINATION":53.2169,"RA_OF_ASC_NODE":137.4595,"ARG_OF_PERICENTER":82.7901,"MEAN_ANOMALY":277.3253,"EPHEMERIS_TYPE":0,"CLASSIFICATION_TYPE":"U","NORAD_CAT_ID":53003,"ELEMENT_SET_NO":999,"REV_AT_EPOCH":18928,"BSTAR":8.6920974e-5,"MEAN_MOTION_DOT":1.096e-5,"MEAN_MOTION_DDOT":0},{"OBJECT_NAME":"STARLINK-4253","OBJECT_ID":"2022-076U","EPOCH":"2025-12-09T17:23:01.775040","MEAN_MOTION":15.08843634,"ECCENTRICITY":0.0001655,"INCLINATION":53.2168,"RA_OF_ASC_NODE":137.9892,"ARG_OF_PERICENTER":91.2569,"MEAN_ANOMALY":268.8613,"EPHEMERIS_TYPE":0,"CLASSIFICATION_TYPE":"U","NORAD_CAT_ID":53004,"ELEMENT_SET_NO":999,"REV_AT_EPOCH":18926,"BSTAR":4.415166e-5,"MEAN_MOTION_DOT":4.15e-6,"MEAN_MOTION_DDOT":0},{"OBJECT_NAME":"STARLINK-4288","OBJECT_ID":"2022-076V","EPOCH":"2025-12-09T16:56:32.676864","MEAN_MOTION":15.08851027,"ECCENTRICITY":0.00014773,"INCLINATION":53.2159,"RA_OF_ASC_NODE":138.0734,"ARG_OF_PERICENTER":90.357,"MEAN_ANOMALY":269.7591,"EPHEMERIS_TYPE":0,"CLASSIFICATION_TYPE":"U","NORAD_CAT_ID":53005,"ELEMENT_SET_NO":999,"REV_AT_EPOCH":18926,"BSTAR":0.00036191737,"MEAN_MOTION_DOT":5.478e-5,"MEAN_MOTION_DDOT":0},{"OBJECT_NAME":"STARLINK-4290","OBJECT_ID":"2022-076W","EPOCH":"2025-12-09T20:17:54.399264","MEAN_MOTION":15.08839579,"ECCENTRICITY":0.00012474,"INCLINATION":53.2178,"RA_OF_ASC_NODE":137.444,"ARG_OF_PERICENTER":87.1436,"MEAN_ANOMALY":272.9699,"EPHEMERIS_TYPE":0,"CLASSIFICATION_TYPE":"U","NORAD_CAT_ID":53006,"ELEMENT_SET_NO":999,"REV_AT_EPOCH":18928,"BSTAR":0.00015517627,"MEAN_MOTION_DOT":2.183e-5,"MEAN_MOTION_DDOT":0},{"OBJECT_NAME":"STARLINK-4215","OBJECT_ID":"2022-076X","EPOCH":"2025-12-10T03:53:38.374944","MEAN_MOTION":15.0885397,"ECCENTRICITY":0.00013534,"INCLINATION":53.2161,"RA_OF_ASC_NODE":136.0244,"ARG_OF_PERICENTER":84.4636,"MEAN_ANOMALY":275.6511,"EPHEMERIS_TYPE":0,"CLASSIFICATION_TYPE":"U","NORAD_CAT_ID":53007,"ELEMENT_SET_NO":999,"REV_AT_EPOCH":18933,"BSTAR":9.4127037e-5,"MEAN_MOTION_DOT":1.211e-5,"MEAN_MOTION_DDOT":0},{"OBJECT_NAME":"STARLINK-4275","OBJECT_ID":"2022-076Y","EPOCH":"2025-12-09T20:02:00.122496","MEAN_MOTION":15.08844399,"ECCENTRICITY":0.00013377,"INCLINATION":53.2159,"RA_OF_ASC_NODE":137.4848,"ARG_OF_PERICENTER":84.2714,"MEAN_ANOMALY":275.8431,"EPHEMERIS_TYPE":0,"CLASSIFICATION_TYPE":"U","NORAD_CAT_ID":53008,"ELEMENT_SET_NO":999,"REV_AT_EPOCH":18928,"BSTAR":0.00011886363,"MEAN_MOTION_DOT":1.605e-5,"MEAN_MOTION_DDOT":0},{"OBJECT_NAME":"STARLINK-4277","OBJECT_ID":"2022-076Z","EPOCH":"2025-12-09T16:26:03.740928","MEAN_MOTION":15.0884758,"ECCENTRICITY":0.00012873,"INCLINATION":53.2163,"RA_OF_ASC_NODE":128.1681,"ARG_OF_PERICENTER":89.8254,"MEAN_ANOMALY":270.2886,"EPHEMERIS_TYPE":0,"CLASSIFICATION_TYPE":"U","NORAD_CAT_ID":53009,"ELEMENT_SET_NO":999,"REV_AT_EPOCH":18939,"BSTAR":4.9609557e-5,"MEAN_MOTION_DOT":5.02e-6,"MEAN_MOTION_DDOT":0}]
